[
    {
        "Altitude(m)": 716532.7480114369,
        "Argument of Periapsis(deg)": 0.011390121186627068,
        "Eccentricity": 0.0,
        "Inclination(deg)": 45.0,
        "Latitude(deg)": -41.89407528225038,
        "Longitude(deg)": 26.068759207007922,
        "Mean Anomaly(deg)": -70.28498335251916,
        "RAAN(deg)": 189.9892480585418,
        "Satellite Name": "Constellation 1 853",
        "Satellite Number": 853,
        "Semi-Major Axis(m)": 7083131.272910544,
        "Time(s)": 190
    },
    {
        "Altitude(m)": 716524.7015371397,
        "Argument of Periapsis(deg)": 0.011450069192872472,
        "Eccentricity": 0.0,
        "Inclination(deg)": 45.0,
        "Latitude(deg)": -41.87467158157239,
        "Longitude(deg)": 26.14153597344017,
        "Mean Anomaly(deg)": -70.22428221226927,
        "RAAN(deg)": 189.98919146937624,
        "Satellite Name": "Constellation 1 853",
        "Satellite Number": 853,
        "Semi-Major Axis(m)": 7083131.272910544,
        "Time(s)": 191
    },
    {
        "Altitude(m)": 716516.6336468069,
        "Argument of Periapsis(deg)": 0.01151001719911788,
        "Eccentricity": 0.0,
        "Inclination(deg)": 45.0,
        "Latitude(deg)": -41.855216372055345,
        "Longitude(deg)": 26.21426629753241,
        "Mean Anomaly(deg)": -70.16358107201931,
        "RAAN(deg)": 189.98913488021066,
        "Satellite Name": "Constellation 1 853",
        "Satellite Number": 853,
        "Semi-Major Axis(m)": 7083131.272910544,
        "Time(s)": 192
    },
    {
        "Altitude(m)": 716508.5443699983,
        "Argument of Periapsis(deg)": 0.011569965205363285,
        "Eccentricity": 0.0,
        "Inclination(deg)": 45.0,
        "Latitude(deg)": -41.83570971910061,
        "Longitude(deg)": 26.28694994827325,
        "Mean Anomaly(deg)": -70.10287993176948,
        "RAAN(deg)": 189.9890782910451,
        "Satellite Name": "Constellation 1 853",
        "Satellite Number": 853,
        "Semi-Major Axis(m)": 7083131.272910544,
        "Time(s)": 193
    },
    {
        "Altitude(m)": 716500.433736355,
        "Argument of Periapsis(deg)": 0.01162991321160869,
        "Eccentricity": 0.0,
        "Inclination(deg)": 45.0,
        "Latitude(deg)": -41.81615168817864,
        "Longitude(deg)": 26.35958719948051,
        "Mean Anomaly(deg)": -70.04217879151959,
        "RAAN(deg)": 189.98902170187955,
        "Satellite Name": "Constellation 1 853",
        "Satellite Number": 853,
        "Semi-Major Axis(m)": 7083131.272910544,
        "Time(s)": 194
    },
    {
        "Altitude(m)": 716492.3017756006,
        "Argument of Periapsis(deg)": 0.011689861217854095,
        "Eccentricity": 0.0,
        "Inclination(deg)": 45.0,
        "Latitude(deg)": -41.7965423448301,
        "Longitude(deg)": 26.432177821218126,
        "Mean Anomaly(deg)": -69.98147765126976,
        "RAAN(deg)": 189.98896511271394,
        "Satellite Name": "Constellation 1 853",
        "Satellite Number": 853,
        "Semi-Major Axis(m)": 7083131.272910544,
        "Time(s)": 195
    },
    {
        "Altitude(m)": 716484.1485175237,
        "Argument of Periapsis(deg)": 0.0117498092240995,
        "Eccentricity": 0.0,
        "Inclination(deg)": 45.0,
        "Latitude(deg)": -41.77688175466385,
        "Longitude(deg)": 26.50472175218405,
        "Mean Anomaly(deg)": -69.92077651101977,
        "RAAN(deg)": 189.9889085235484,
        "Satellite Name": "Constellation 1 853",
        "Satellite Number": 853,
        "Semi-Major Axis(m)": 7083131.272910544,
        "Time(s)": 196
    },
    {
        "Altitude(m)": 716475.973992003,
        "Argument of Periapsis(deg)": 0.011809757230344905,
        "Eccentricity": 0.0,
        "Inclination(deg)": 45.0,
        "Latitude(deg)": -41.75716998335645,
        "Longitude(deg)": 26.577218931611515,
        "Mean Anomaly(deg)": -69.86007537076993,
        "RAAN(deg)": 189.9888519343828,
        "Satellite Name": "Constellation 1 853",
        "Satellite Number": 853,
        "Semi-Major Axis(m)": 7083131.272910544,
        "Time(s)": 197
    },
    {
        "Altitude(m)": 716467.7782289749,
        "Argument of Periapsis(deg)": 0.011869705236590313,
        "Eccentricity": 0.0,
        "Inclination(deg)": 45.0,
        "Latitude(deg)": -41.73740709665113,
        "Longitude(deg)": 26.649669299269675,
        "Mean Anomaly(deg)": -69.79937423051996,
        "RAAN(deg)": 189.98879534521726,
        "Satellite Name": "Constellation 1 853",
        "Satellite Number": 853,
        "Semi-Major Axis(m)": 7083131.272910544,
        "Time(s)": 198
    },
    {
        "Altitude(m)": 716459.5612584765,
        "Argument of Periapsis(deg)": 0.011929653242835719,
        "Eccentricity": 0.0,
        "Inclination(deg)": 45.0,
        "Latitude(deg)": -41.71759316035736,
        "Longitude(deg)": 26.72207279546135,
        "Mean Anomaly(deg)": -69.7386730902701,
        "RAAN(deg)": 189.98873875605165,
        "Satellite Name": "Constellation 1 853",
        "Satellite Number": 853,
        "Semi-Major Axis(m)": 7083131.272910544,
        "Time(s)": 199
    }
]